{
"type": "FeatureCollection",
"name": "hotspots_500m",
"crs": { "type": "name", "properties": { "name": "urn:ogc:def:crs:OGC:1.3:CRS84" } },
"features": [
{ "type": "Feature", "properties": { "hotspot_id": 1, "date": "2025-01-01T00:00:00", "area_km2": 641.0 }, "geometry": { "type": "Polygon", "coordinates": [ [ [ 77.050272767768462, 28.751627959613117 ], [ 77.048338751449435, 28.652401669257362 ], [ 77.068791262082968, 28.652090728628863 ], [ 77.068968426898337, 28.661111249756463 ], [ 77.079195434586566, 28.660954564293629 ], [ 77.078839438309814, 28.642913625666548 ], [ 77.068614178620166, 28.643070194478366 ], [ 77.068437176480458, 28.634049647307904 ], [ 77.058212708895127, 28.634205387178099 ], [ 77.058036661075619, 28.625184768976336 ], [ 77.047812985653408, 28.625339680465959 ], [ 77.04676362577203, 28.571215352104286 ], [ 77.056982071266845, 28.571060786777103 ], [ 77.056631187145854, 28.553019355452538 ], [ 77.128145844847467, 28.551916700561868 ], [ 77.128327334738003, 28.560937011139988 ], [ 77.138544253520607, 28.560776357232132 ], [ 77.138361894012576, 28.551756106596478 ], [ 77.148577859353026, 28.551594744740523 ], [ 77.146567891400636, 28.452371788366627 ], [ 77.258832955414277, 28.450553622065428 ], [ 77.259408678845844, 28.477612544078813 ], [ 77.290032379063319, 28.477100050968026 ], [ 77.289448868868973, 28.450041703564942 ], [ 77.350678269732555, 28.44899722886576 ], [ 77.353280268930476, 28.566244125350497 ], [ 77.343064325610911, 28.566420971906023 ], [ 77.343264254621516, 28.575439937009815 ], [ 77.353481067689643, 28.575263024477131 ], [ 77.355090783584316, 28.64741373884025 ], [ 77.344866998140034, 28.647591179585724 ], [ 77.346878725158547, 28.737779035398336 ], [ 77.33664609568396, 28.737956363977521 ], [ 77.336846899235738, 28.746975142175263 ], [ 77.214037744885644, 28.749043517188756 ], [ 77.213847472634797, 28.740023970603698 ], [ 77.203613677131173, 28.740191242373609 ], [ 77.203803071563613, 28.749210851123411 ], [ 77.050272767768462, 28.751627959613117 ] ], [ [ 77.121375728663779, 28.723461327950737 ], [ 77.182770806679429, 28.722483960650923 ], [ 77.182583426109701, 28.713464188954752 ], [ 77.203046014984764, 28.713132337036104 ], [ 77.202290346963309, 28.677053612159749 ], [ 77.181834763330158, 28.677384970663411 ], [ 77.181647812354001, 28.66836513322896 ], [ 77.120284262398954, 28.669340321510202 ], [ 77.121375728663779, 28.723461327950737 ] ], [ [ 77.089064616275493, 28.642756285959692 ], [ 77.099289712116345, 28.642598175380513 ], [ 77.099110089872042, 28.633577804003586 ], [ 77.088885867369655, 28.633735855697996 ], [ 77.089064616275493, 28.642756285959692 ] ], [ [ 77.180900866389294, 28.632285652134929 ], [ 77.221794210651154, 28.631621086425049 ], [ 77.221604198023698, 28.622601430873349 ], [ 77.242048602897285, 28.622264651734593 ], [ 77.24224036056826, 28.631284181792985 ], [ 77.26268615807146, 28.630944196234914 ], [ 77.262492655484678, 28.621924792816632 ], [ 77.293158066825029, 28.621409230283298 ], [ 77.292962037179194, 28.612390005736419 ], [ 77.303182789435724, 28.612216676481971 ], [ 77.301414741288127, 28.531043641230625 ], [ 77.291201818256312, 28.531216389574954 ], [ 77.291006687545121, 28.522197032809142 ], [ 77.2705823085725, 28.522540100474764 ], [ 77.270969187076759, 28.540579057070719 ], [ 77.260755127585512, 28.540749568112219 ], [ 77.26017754726746, 28.513690922540555 ], [ 77.229542651603367, 28.514197284109368 ], [ 77.229352903692828, 28.505177520120387 ], [ 77.178297340776751, 28.506005815624064 ], [ 77.178668247820866, 28.524045949473518 ], [ 77.16845514244126, 28.524209431657525 ], [ 77.16919450514051, 28.560289786539805 ], [ 77.158977839121306, 28.560452744908709 ], [ 77.159346290417318, 28.578492965442024 ], [ 77.149127799432421, 28.57865527674144 ], [ 77.149311281382509, 28.587675427922832 ], [ 77.169749920117198, 28.587349915243102 ], [ 77.169935228693106, 28.59636993194556 ], [ 77.180155291635529, 28.596205961015627 ], [ 77.180900866389294, 28.632285652134929 ] ], [ [ 77.332848290418042, 28.566597050484862 ], [ 77.343064325610911, 28.566420971906023 ], [ 77.342864488473637, 28.557401993527762 ], [ 77.332649322663386, 28.557578006426649 ], [ 77.332848290418042, 28.566597050484862 ] ], [ [ 77.218764463457759, 28.487305019522655 ], [ 77.228973669619947, 28.487137952738653 ], [ 77.228784183394623, 28.478118149352007 ], [ 77.218575843382666, 28.478285153698941 ], [ 77.218764463457759, 28.487305019522655 ] ] ] } },
{ "type": "Feature", "properties": { "hotspot_id": 2, "date": "2025-01-01T00:00:00", "area_km2": 1.0 }, "geometry": { "type": "Polygon", "coordinates": [ [ [ 77.200971263079239, 28.613915336996318 ], [ 77.200783168531231, 28.604895530813053 ], [ 77.211003844944543, 28.604729190267904 ], [ 77.211192811292833, 28.613748934442015 ], [ 77.200971263079239, 28.613915336996318 ] ] ] } },
{ "type": "Feature", "properties": { "hotspot_id": 3, "date": "2025-01-01T00:00:00", "area_km2": 2.0 }, "geometry": { "type": "Polygon", "coordinates": [ [ [ 77.250924737829209, 28.558958469739977 ], [ 77.250540979511285, 28.540919311835911 ], [ 77.260755127585512, 28.540749568112219 ], [ 77.261140623992418, 28.558788599268869 ], [ 77.250924737829209, 28.558958469739977 ] ] ] } }
]
}
