{"type": "FeatureCollection", "features": [{"type": "Feature", "properties": {"hotspot_id": "HS_MUMBAI_001", "date": "2025-01-01", "mean_aqi": 304.0, "area_km2": 0.25, "city": "Mumbai"}, "geometry": {"type": "Polygon", "coordinates": [[[72.96262078556599, 19.267989626016714], [72.9626765674523, 19.26347639409027], [72.96739674630474, 19.26352894198994], [72.96734109343967, 19.268042187172778], [72.96262078556599, 19.267989626016714]]]}}, {"type": "Feature", "properties": {"hotspot_id": "HS_MUMBAI_002", "date": "2025-01-01", "mean_aqi": 301.0, "area_km2": 0.25, "city": "Mumbai"}, "geometry": {"type": "Polygon", "coordinates": [[[72.99588268496447, 19.250301687150195], [72.9959375021902, 19.24578835357321], [73.00065727215602, 19.245839997379555], [73.00060258382048, 19.250353343995325], [72.99588268496447, 19.250301687150195]]]}}, {"type": "Feature", "properties": {"hotspot_id": "HS_MUMBAI_003", "date": "2025-01-01", "mean_aqi": 301.0, "area_km2": 0.5, "city": "Mumbai"}, "geometry": {"type": "Polygon", "coordinates": [[[72.97233888040752, 19.24552831076768], [72.97239432651203, 19.241015040467584], [72.98183347178237, 19.241119395985447], [72.98177828336884, 19.24563269263791], [72.97233888040752, 19.24552831076768]]]}}, {"type": "Feature", "properties": {"hotspot_id": "HS_MUMBAI_004", "date": "2025-01-01", "mean_aqi": 301.0, "area_km2": 0.25, "city": "Mumbai"}, "geometry": {"type": "Polygon", "coordinates": [[[72.96767477685671, 19.24096268038575], [72.96773033622611, 19.236449420930313], [72.97244975707491, 19.236501767790635], [72.97239432651203, 19.241015040467584], [72.96767477685671, 19.24096268038575]]]}}, {"type": "Feature", "properties": {"hotspot_id": "HS_MUMBAI_005", "date": "2025-01-01", "mean_aqi": 304.0, "area_km2": 0.74, "city": "Mumbai"}, "geometry": {"type": "Polygon", "coordinates": [[[72.98183347178237, 19.241119395985447], [72.98199894421407, 19.22757949177725], [72.98671815342931, 19.227631447823576], [72.98655306732614, 19.241171391418085], [72.98183347178237, 19.241119395985447]]]}}, {"type": "Feature", "properties": {"hotspot_id": "HS_MUMBAI_006", "date": "2025-01-01", "mean_aqi": 302.0, "area_km2": 0.25, "city": "Mumbai"}, "geometry": {"type": "Polygon", "coordinates": [[[72.94413346317583, 19.236185863927936], [72.94418965079261, 19.231672668659755], [72.94890886569739, 19.231725609707077], [72.94885280684137, 19.236238818349488], [72.94413346317583, 19.236185863927936]]]}}, {"type": "Feature", "properties": {"hotspot_id": "HS_MUMBAI_007", "date": "2025-01-01", "mean_aqi": 302.3, "area_km2": 0.74, "city": "Mumbai"}, "geometry": {"type": "Polygon", "coordinates": [[[72.96778588001973, 19.23193615909782], [72.96789692088748, 19.22290962830359], [72.97261595553329, 19.222961935503562], [72.97256057158359, 19.227475215308143], [72.97727975025363, 19.22752741427153], [72.97722447950441, 19.232040704890156], [72.96778588001973, 19.23193615909782]]]}}, {"type": "Feature", "properties": {"hotspot_id": "HS_MUMBAI_008", "date": "2025-01-01", "mean_aqi": 303.0, "area_km2": 0.25, "city": "Mumbai"}, "geometry": {"type": "Polygon", "coordinates": [[[72.97727975025363, 19.22752741427153], [72.97733500550315, 19.22301412127821], [72.98205407076149, 19.223066185625854], [72.98199894421407, 19.22757949177725], [72.97727975025363, 19.22752741427153]]]}}, {"type": "Feature", "properties": {"hotspot_id": "HS_MUMBAI_009", "date": "2025-01-01", "mean_aqi": 302.4, "area_km2": 1.24, "city": "Mumbai"}, "geometry": {"type": "Polygon", "coordinates": [[[72.98671815342931, 19.227631447823576], [72.98682813369057, 19.21860480689321], [72.98210918184725, 19.218552877100954], [72.98216427747326, 19.214039566203017], [72.98688310068472, 19.21409148286928], [72.98693805225716, 19.209578156473487], [72.99165676208443, 19.209629938676095], [72.99143737786376, 19.227683282408854], [72.98671815342931, 19.227631447823576]]]}}, {"type": "Feature", "properties": {"hotspot_id": "HS_MUMBAI_010", "date": "2025-01-01", "mean_aqi": 303.6, "area_km2": 12.9, "city": "Mumbai"}, "geometry": {"type": "Polygon", "coordinates": [[[72.94430197876537, 19.222646270983606], [72.94441424373693, 19.213619863791017], [72.94913294395953, 19.213672751348504], [72.94918892424442, 19.209159530814063], [72.95390751138285, 19.209212283676088], [72.95385165968027, 19.213725517550557], [72.95857039086358, 19.213778162395453], [72.95868182146407, 19.204751665652267], [72.949244888821, 19.204646307902678], [72.94935677085705, 19.195619854951037], [72.95407497246492, 19.1956725677972], [72.95413076149025, 19.191159324420692], [72.9588488501129, 19.191211902725836], [72.95896012440039, 19.182185382239446], [72.96367797166461, 19.182237812789403], [72.96373345703685, 19.177724535713256], [72.96845119134328, 19.177776831874205], [72.96850653282932, 19.173263539184195], [72.97322415417456, 19.17331570101646], [72.97316894099012, 19.17782900691823], [72.982604486163, 19.177932993648785], [72.98249452668321, 19.18695965100899], [72.98721257886096, 19.187011488933774], [72.98715770436822, 19.19152482718154], [72.99187590016543, 19.191576557012514], [72.99182113871403, 19.196089905982724], [72.9871028144634, 19.196038163059875], [72.98704790914456, 19.200551496568302], [72.98232947161222, 19.20049961927589], [72.98227442235381, 19.20501293729], [72.9869929884098, 19.205064827706334], [72.98693805225716, 19.209578156473487], [72.98221935764147, 19.209526252932537], [72.98216427747326, 19.214039566203017], [72.97744546951085, 19.21398752816942], [72.97750067827292, 19.20947422805492], [72.97278201418712, 19.209422081842323], [72.97283733601313, 19.20490879254104], [72.96811881579961, 19.2048565382118], [72.96806336541962, 19.209369814296455], [72.96334473200604, 19.209317425418984], [72.96328913747388, 19.213830685881486], [72.96800789947558, 19.213883088006956], [72.96795241796552, 19.218396359342837], [72.96323352733964, 19.21834394396866], [72.96317790160136, 19.222857199680014], [72.94430197876537, 19.222646270983606]]]}}, {"type": "Feature", "properties": {"hotspot_id": "HS_MUMBAI_011", "date": "2025-01-01", "mean_aqi": 302.5, "area_km2": 0.5, "city": "Mumbai"}, "geometry": {"type": "Polygon", "coordinates": [[[72.97261595553329, 19.222961935503562], [72.97272667683309, 19.213935368770173], [72.97744546951085, 19.21398752816942], [72.97733500550315, 19.22301412127821], [72.97261595553329, 19.222961935503562]]]}}, {"type": "Feature", "properties": {"hotspot_id": "HS_MUMBAI_012", "date": "2025-01-01", "mean_aqi": 302.0, "area_km2": 0.5, "city": "Mumbai"}, "geometry": {"type": "Polygon", "coordinates": [[[72.99621135791152, 19.223221650089894], [72.99632079271254, 19.214194952093052], [73.00103966145771, 19.214246504647207], [73.00093048396786, 19.223273228712667], [72.99621135791152, 19.223221650089894]]]}}, {"type": "Feature", "properties": {"hotspot_id": "HS_MUMBAI_013", "date": "2025-01-01", "mean_aqi": 301.0, "area_km2": 0.25, "city": "Mumbai"}, "geometry": {"type": "Polygon", "coordinates": [[[72.92553959853954, 19.213407100041017], [72.92559622170678, 19.20889394666677], [72.93031473100847, 19.208947306135453], [72.93025823641378, 19.213460473003078], [72.92553959853954, 19.213407100041017]]]}}, {"type": "Feature", "properties": {"hotspot_id": "HS_MUMBAI_014", "date": "2025-01-01", "mean_aqi": 302.5, "area_km2": 0.99, "city": "Mumbai"}, "geometry": {"type": "Polygon", "coordinates": [[[72.93497688992848, 19.213513724616583], [72.93503325594864, 19.209000544286248], [72.93975179649173, 19.209053661117427], [72.93980801815498, 19.204540464976695], [72.949244888821, 19.204646307902678], [72.94918892424442, 19.209159530814063], [72.9444703526022, 19.209106656627274], [72.94441424373693, 19.213619863791017], [72.93497688992848, 19.213513724616583]]]}}, {"type": "Feature", "properties": {"hotspot_id": "HS_MUMBAI_015", "date": "2025-01-01", "mean_aqi": 302.0, "area_km2": 0.25, "city": "Mumbai"}, "geometry": {"type": "Polygon", "coordinates": [[[72.96800789947558, 19.213883088006956], [72.96806336541962, 19.209369814296455], [72.97278201418712, 19.209422081842323], [72.97272667683309, 19.213935368770173], [72.96800789947558, 19.213883088006956]]]}}, {"type": "Feature", "properties": {"hotspot_id": "HS_MUMBAI_016", "date": "2025-01-01", "mean_aqi": 302.5, "area_km2": 0.5, "city": "Mumbai"}, "geometry": {"type": "Polygon", "coordinates": [[[72.99165676208443, 19.209629938676095], [72.99171156967547, 19.205116596814996], [73.00114877769352, 19.205219771102602], [73.0010942272314, 19.20973313905956], [72.99165676208443, 19.209629938676095]]]}}, {"type": "Feature", "properties": {"hotspot_id": "HS_MUMBAI_017", "date": "2025-01-01", "mean_aqi": 303.7, "area_km2": 0.74, "city": "Mumbai"}, "geometry": {"type": "Polygon", "coordinates": [[[72.93508960615229, 19.20448736157685], [72.93520225911801, 19.195460989022838], [72.94463858473956, 19.19556702087211], [72.94458252310153, 19.200080235167334], [72.93986422403975, 19.200027266458108], [72.93980801815498, 19.204540464976695], [72.93508960615229, 19.20448736157685]]]}}, {"type": "Feature", "properties": {"hotspot_id": "HS_MUMBAI_018", "date": "2025-01-01", "mean_aqi": 302.0, "area_km2": 0.25, "city": "Mumbai"}, "geometry": {"type": "Polygon", "coordinates": [[[72.9869929884098, 19.205064827706334], [72.98704790914456, 19.200551496568302], [72.99176636188469, 19.200603252583715], [72.99171156967547, 19.205116596814996], [72.9869929884098, 19.205064827706334]]]}}, {"type": "Feature", "properties": {"hotspot_id": "HS_MUMBAI_019", "date": "2025-01-01", "mean_aqi": 303.0, "area_km2": 0.25, "city": "Mumbai"}, "geometry": {"type": "Polygon", "coordinates": [[[72.996484829797, 19.200654887320454], [72.99653947813496, 19.196141527657566], [73.00125783269063, 19.196193028082728], [73.00120331284594, 19.20070640077683], [72.996484829797, 19.200654887320454]]]}}, {"type": "Feature", "properties": {"hotspot_id": "HS_MUMBAI_020", "date": "2025-01-01", "mean_aqi": 306.0, "area_km2": 0.25, "city": "Mumbai"}, "geometry": {"type": "Polygon", "coordinates": [[[72.94463858473956, 19.19556702087211], [72.94469463063913, 19.19105380420071], [72.94941268832046, 19.19110662491175], [72.94935677085705, 19.195619854951037], [72.94463858473956, 19.19556702087211]]]}}, {"type": "Feature", "properties": {"hotspot_id": "HS_MUMBAI_021", "date": "2025-01-01", "mean_aqi": 302.0, "area_km2": 0.25, "city": "Mumbai"}, "geometry": {"type": "Polygon", "coordinates": [[[72.93525856188404, 19.190947799179188], [72.93531484884147, 19.186434606958432], [72.94003274704302, 19.18648765664002], [72.9399765884818, 19.191000862289286], [72.93525856188404, 19.190947799179188]]]}}, {"type": "Feature", "properties": {"hotspot_id": "HS_MUMBAI_022", "date": "2025-01-01", "mean_aqi": 302.0, "area_km2": 0.25, "city": "Mumbai"}, "geometry": {"type": "Polygon", "coordinates": [[[72.94941268832046, 19.19110662491175], [72.94946859008343, 19.18659339249747], [72.95418653485116, 19.186646078669902], [72.95413076149025, 19.191159324420692], [72.94941268832046, 19.19110662491175]]]}}, {"type": "Feature", "properties": {"hotspot_id": "HS_MUMBAI_023", "date": "2025-01-01", "mean_aqi": 302.7, "area_km2": 1.49, "city": "Mumbai"}, "geometry": {"type": "Polygon", "coordinates": [[[72.99659411113102, 19.191628165626152], [72.99670333110512, 19.182601434459663], [72.99198537694204, 19.18254985196637], [72.99193064624079, 19.187063205673567], [72.98721257886096, 19.187011488933774], [72.98732228161792, 19.17798480533194], [73.00147575903006, 19.17813951363271], [73.00131233722946, 19.191679653020774], [72.99659411113102, 19.191628165626152]]]}}, {"type": "Feature", "properties": {"hotspot_id": "HS_MUMBAI_024", "date": "2025-01-01", "mean_aqi": 303.0, "area_km2": 0.25, "city": "Mumbai"}, "geometry": {"type": "Polygon", "coordinates": [[[72.92587909925342, 19.186328144098127], [72.92593562711875, 19.181814976448326], [72.93065336574215, 19.181868254971647], [72.9305969662331, 19.186381436110555], [72.92587909925342, 19.186328144098127]]]}}, {"type": "Feature", "properties": {"hotspot_id": "HS_MUMBAI_025", "date": "2025-01-01", "mean_aqi": 303.2, "area_km2": 10.42, "city": "Mumbai"}, "geometry": {"type": "Polygon", "coordinates": [[[72.93065336574215, 19.181868254971647], [72.93076611724024, 19.172841885563795], [72.93548361488203, 19.172895016038414], [72.93559604656906, 19.163868610215157], [72.94031330333003, 19.16392159276481], [72.94036936729741, 19.159408372867407], [72.93093512571704, 19.159302313634292], [72.93099143021182, 19.154789118241684], [72.94042541550603, 19.154895150597024], [72.94048144795786, 19.15038192595415], [72.94519833582878, 19.15043474731036], [72.9451424314869, 19.154947985345444], [72.94985946297626, 19.15500069913874], [72.94980367106155, 19.159513948164292], [72.94508651142426, 19.15946122100874], [72.94503057563888, 19.163974454299762], [72.95446516675814, 19.164079814318658], [72.9546321580547, 19.15054002724765], [72.94991523920622, 19.15048744774209], [72.94997099975339, 19.145974193974848], [72.96412141833055, 19.146131529807498], [72.96406604202268, 19.15064482347341], [72.96878300707115, 19.150697040190217], [72.96867246400436, 19.159723646894644], [72.97338970066085, 19.15977576909577], [72.97344485180706, 19.155262453718713], [72.97816197560135, 19.155314441745524], [72.97805191415719, 19.16434109648892], [72.97333453400798, 19.164289082104737], [72.97327935184654, 19.168802392745132], [72.9638443810239, 19.168697974447163], [72.96373345703685, 19.177724535713256], [72.95901573810646, 19.177672118437087], [72.95896012440039, 19.182185382239446], [72.94952447614789, 19.18208015770869], [72.94958034651582, 19.17756692054589], [72.94486267392669, 19.177514139934274], [72.94480667523072, 19.1820273637313], [72.93065336574215, 19.181868254971647]]]}}, {"type": "Feature", "properties": {"hotspot_id": "HS_MUMBAI_026", "date": "2025-01-01", "mean_aqi": 303.3, "area_km2": 0.74, "city": "Mumbai"}, "geometry": {"type": "Polygon", "coordinates": [[[72.982604486163, 19.177932993648785], [72.98271438387347, 19.168906326813964], [72.99214947682042, 19.169009776640173], [72.99209479222992, 19.17352313744919], [72.987377109886, 19.17347145997882], [72.98732228161792, 19.17798480533194], [72.982604486163, 19.177932993648785]]]}}, {"type": "Feature", "properties": {"hotspot_id": "HS_MUMBAI_027", "date": "2025-01-01", "mean_aqi": 304.0, "area_km2": 0.25, "city": "Mumbai"}, "geometry": {"type": "Polygon", "coordinates": [[[72.97799686022724, 19.168854420309035], [72.97805191415719, 19.16434109648892], [72.98276930957003, 19.164392989844785], [72.98271438387347, 19.168906326813964], [72.97799686022724, 19.168854420309035]]]}}, {"type": "Feature", "properties": {"hotspot_id": "HS_MUMBAI_028", "date": "2025-01-01", "mean_aqi": 302.0, "area_km2": 0.25, "city": "Mumbai"}, "geometry": {"type": "Polygon", "coordinates": [[[72.99686704605003, 19.169061319958097], [72.99692158703499, 19.16454794372569], [73.001639043147, 19.16459935295151], [73.00158463040302, 19.169112742210338], [72.99686704605003, 19.169061319958097]]]}}, {"type": "Feature", "properties": {"hotspot_id": "HS_MUMBAI_029", "date": "2025-01-01", "mean_aqi": 301.0, "area_km2": 0.25, "city": "Mumbai"}, "geometry": {"type": "Polygon", "coordinates": [[[72.92616157983294, 19.163762282078576], [72.92621802833462, 19.159249102545935], [72.93093512571704, 19.159302313634292], [72.93087880539153, 19.163815506652504], [72.92616157983294, 19.163762282078576]]]}}, {"type": "Feature", "properties": {"hotspot_id": "HS_MUMBAI_030", "date": "2025-01-01", "mean_aqi": 304.0, "area_km2": 0.25, "city": "Mumbai"}, "geometry": {"type": "Polygon", "coordinates": [[[72.98276930957003, 19.164392989844785], [72.98282421983005, 19.15987965050841], [72.98754150227171, 19.15993140971657], [72.98748672021097, 19.164444762170653], [72.98276930957003, 19.164392989844785]]]}}, {"type": "Feature", "properties": {"hotspot_id": "HS_MUMBAI_031", "date": "2025-01-01", "mean_aqi": 301.0, "area_km2": 0.25, "city": "Mumbai"}, "geometry": {"type": "Polygon", "coordinates": [[[72.99225879990404, 19.159983047923706], [72.99231343840101, 19.15546968001724], [72.99703062302142, 19.15552118416597], [72.99697611269148, 19.16003456512815], [72.99225879990404, 19.159983047923706]]]}}, {"type": "Feature", "properties": {"hotspot_id": "HS_MUMBAI_032", "date": "2025-01-01", "mean_aqi": 302.0, "area_km2": 0.25, "city": "Mumbai"}, "geometry": {"type": "Polygon", "coordinates": [[[72.97816197560135, 19.155314441745524], [72.97821698311941, 19.150801110823224], [72.98293399404818, 19.150852964736043], [72.98287911465546, 19.155366308805338], [72.97816197560135, 19.155314441745524]]]}}, {"type": "Feature", "properties": {"hotspot_id": "HS_MUMBAI_033", "date": "2025-01-01", "mean_aqi": 303.0, "area_km2": 0.25, "city": "Mumbai"}, "geometry": {"type": "Polygon", "coordinates": [[[72.98759626893384, 19.15541805489647], [72.98765102019934, 19.150904697710835], [72.99236806153735, 19.150956309745926], [72.99231343840101, 19.15546968001724], [72.98759626893384, 19.15541805489647]]]}}, {"type": "Feature", "properties": {"hotspot_id": "HS_MUMBAI_034", "date": "2025-01-01", "mean_aqi": 302.0, "area_km2": 0.25, "city": "Mumbai"}, "geometry": {"type": "Polygon", "coordinates": [[[72.93582072039811, 19.145815770082457], [72.93587684937835, 19.141302554117516], [72.94059346559911, 19.141355469552877], [72.94053746465492, 19.145868698939267], [72.93582072039811, 19.145815770082457]]]}}, {"type": "Feature", "properties": {"hotspot_id": "HS_MUMBAI_035", "date": "2025-01-01", "mean_aqi": 301.5, "area_km2": 0.5, "city": "Mumbai"}, "geometry": {"type": "Polygon", "coordinates": [[[72.97827197517071, 19.14628777753449], [72.97838191288074, 19.1372611038597], [72.9830985396495, 19.1373129183357], [72.98298885801015, 19.146339618301013], [72.97827197517071, 19.14628777753449]]]}}, {"type": "Feature", "properties": {"hotspot_id": "HS_MUMBAI_036", "date": "2025-01-01", "mean_aqi": 302.0, "area_km2": 0.25, "city": "Mumbai"}, "geometry": {"type": "Polygon", "coordinates": [[[72.99242266931493, 19.146442937110255], [72.9924772617357, 19.14192956211071], [72.99719406207102, 19.14198102709642], [72.99713959770928, 19.146494415149622], [72.99242266931493, 19.146442937110255]]]}}, {"type": "Feature", "properties": {"hotspot_id": "HS_MUMBAI_037", "date": "2025-01-01", "mean_aqi": 302.0, "area_km2": 0.25, "city": "Mumbai"}, "geometry": {"type": "Polygon", "coordinates": [[[72.96417677906557, 19.141618233773563], [72.96423212422968, 19.137104935372097], [72.96894870513532, 19.137157112376215], [72.96889348798281, 19.14167042401455], [72.96417677906557, 19.141618233773563]]]}}, {"type": "Feature", "properties": {"hotspot_id": "HS_MUMBAI_038", "date": "2025-01-01", "mean_aqi": 302.0, "area_km2": 0.25, "city": "Mumbai"}, "geometry": {"type": "Polygon", "coordinates": [[[72.95008247380713, 19.136947679330515], [72.95013818731762, 19.13243441845441], [72.95485459407072, 19.13248694464333], [72.95479900853007, 19.137000218847543], [72.95008247380713, 19.136947679330515]]]}}, {"type": "Feature", "properties": {"hotspot_id": "HS_MUMBAI_039", "date": "2025-01-01", "mean_aqi": 303.0, "area_km2": 0.25, "city": "Mumbai"}, "geometry": {"type": "Polygon", "coordinates": [[[72.95951555868277, 19.13705263752864], [72.95957101625163, 19.13253935002696], [72.96428745382484, 19.132591634603592], [72.96423212422968, 19.137104935372097], [72.95951555868277, 19.13705263752864]]]}}, {"type": "Feature", "properties": {"hotspot_id": "HS_MUMBAI_040", "date": "2025-01-01", "mean_aqi": 303.0, "area_km2": 0.25, "city": "Mumbai"}, "geometry": {"type": "Polygon", "coordinates": [[[72.98320815958893, 19.128286208913295], [72.983262946426, 19.1237728506569], [72.98797920456968, 19.123824504948132], [72.98792454564389, 19.12833787631673], [72.98320815958893, 19.128286208913295]]]}}, {"type": "Feature", "properties": {"hotspot_id": "HS_MUMBAI_041", "date": "2025-01-02", "mean_aqi": 302.0, "area_km2": 0.25, "city": "Mumbai"}, "geometry": {"type": "Polygon", "coordinates": [[[72.9535162202374, 19.240804870869006], [72.95357216601478, 19.23629165126221], [72.95829154066043, 19.236344362664394], [72.95823572368379, 19.240857595584753], [72.9535162202374, 19.240804870869006]]]}}, {"type": "Feature", "properties": {"hotspot_id": "HS_MUMBAI_042", "date": "2025-01-02", "mean_aqi": 303.0, "area_km2": 0.25, "city": "Mumbai"}, "geometry": {"type": "Polygon", "coordinates": [[[72.99132759341248, 19.23670994004145], [72.9913824933348, 19.232196612411702], [72.99610186169676, 19.232248338600947], [72.99604709055441, 19.236761679298095], [72.99132759341248, 19.23670994004145]]]}}, {"type": "Feature", "properties": {"hotspot_id": "HS_MUMBAI_043", "date": "2025-01-02", "mean_aqi": 304.0, "area_km2": 0.5, "city": "Mumbai"}, "geometry": {"type": "Polygon", "coordinates": [[[72.96778588001973, 19.23193615909782], [72.96784140823954, 19.227422894888758], [72.97727975025363, 19.22752741427153], [72.97722447950441, 19.232040704890156], [72.96778588001973, 19.23193615909782]]]}}, {"type": "Feature", "properties": {"hotspot_id": "HS_MUMBAI_044", "date": "2025-01-02", "mean_aqi": 303.0, "area_km2": 0.5, "city": "Mumbai"}, "geometry": {"type": "Polygon", "coordinates": [[[72.94424582265512, 19.227159471011483], [72.94430197876537, 19.222646270983606], [72.95373990925049, 19.222751978168812], [72.95368401051935, 19.227265204911635], [72.94424582265512, 19.227159471011483]]]}}, {"type": "Feature", "properties": {"hotspot_id": "HS_MUMBAI_045", "date": "2025-01-02", "mean_aqi": 301.0, "area_km2": 0.25, "city": "Mumbai"}, "geometry": {"type": "Polygon", "coordinates": [[[72.98671815342931, 19.227631447823576], [72.98677315127273, 19.223118128544805], [72.99149224700128, 19.22316995003338], [72.99143737786376, 19.227683282408854], [72.98671815342931, 19.227631447823576]]]}}, {"type": "Feature", "properties": {"hotspot_id": "HS_MUMBAI_046", "date": "2025-01-02", "mean_aqi": 303.7, "area_km2": 14.39, "city": "Mumbai"}, "geometry": {"type": "Polygon", "coordinates": [[[72.95373990925049, 19.222751978168812], [72.95379579230347, 19.218238749048293], [72.9585146521071, 19.218291407203242], [72.95857039086358, 19.213778162395453], [72.94913294395953, 19.213672751348504], [72.94918892424442, 19.209159530814063], [72.93975179649173, 19.209053661117427], [72.93980801815498, 19.204540464976695], [72.93508960615229, 19.20448736157685], [72.93520225911801, 19.195460989022838], [72.93992041414803, 19.195514065562136], [72.93986422403975, 19.200027266458108], [72.94930083769123, 19.20013308261484], [72.94946859008343, 19.18659339249747], [72.95418653485116, 19.186646078669902], [72.95424229254964, 19.182132830545306], [72.96367797166461, 19.182237812789403], [72.9635669541529, 19.19126435982546], [72.96828507357466, 19.191316695717884], [72.96834046171789, 19.186803410141533], [72.97777648974306, 19.186907691900903], [72.97772135842128, 19.191421003874293], [72.98243952377499, 19.1914729761349], [72.98227442235381, 19.20501293729], [72.9869929884098, 19.205064827706334], [72.98693805225716, 19.209578156473487], [72.99165676208443, 19.209629938676095], [72.99154710074927, 19.218656615285774], [72.98210918184725, 19.218552877100954], [72.98205407076149, 19.223066185625854], [72.97261595553329, 19.222961935503562], [72.97267132394913, 19.21844865332407], [72.96323352733964, 19.21834394396866], [72.96317790160136, 19.222857199680014], [72.95373990925049, 19.222751978168812]]]}}, {"type": "Feature", "properties": {"hotspot_id": "HS_MUMBAI_047", "date": "2025-01-02", "mean_aqi": 303.0, "area_km2": 0.25, "city": "Mumbai"}, "geometry": {"type": "Polygon", "coordinates": [[[72.93963930582194, 19.218080046263335], [72.93969555904805, 19.213566854879804], [72.94441424373693, 19.213619863791017], [72.94435811912531, 19.218133068576627], [72.93963930582194, 19.218080046263335]]]}}, {"type": "Feature", "properties": {"hotspot_id": "HS_MUMBAI_048", "date": "2025-01-02", "mean_aqi": 304.0, "area_km2": 0.25, "city": "Mumbai"}, "geometry": {"type": "Polygon", "coordinates": [[[72.99637548708772, 19.20968159953868], [72.99643016611523, 19.20516824461431], [73.00114877769352, 19.205219771102602], [73.0010942272314, 19.20973313905956], [72.99637548708772, 19.20968159953868]]]}}, {"type": "Feature", "properties": {"hotspot_id": "HS_MUMBAI_049", "date": "2025-01-02", "mean_aqi": 303.0, "area_km2": 0.74, "city": "Mumbai"}, "geometry": {"type": "Polygon", "coordinates": [[[72.9869929884098, 19.205064827706334], [72.98704790914456, 19.200551496568302], [72.99176636188469, 19.200603252583715], [72.99182113871403, 19.196089905982724], [72.99653947813496, 19.196141527657566], [72.99643016611523, 19.20516824461431], [72.9869929884098, 19.205064827706334]]]}}, {"type": "Feature", "properties": {"hotspot_id": "HS_MUMBAI_050", "date": "2025-01-02", "mean_aqi": 302.0, "area_km2": 0.25, "city": "Mumbai"}, "geometry": {"type": "Polygon", "coordinates": [[[72.93048411968506, 19.19540779125592], [72.93054055088139, 19.190894614872146], [72.93525856188404, 19.190947799179188], [72.93520225911801, 19.195460989022838], [72.93048411968506, 19.19540779125592]]]}}, {"type": "Feature", "properties": {"hotspot_id": "HS_MUMBAI_051", "date": "2025-01-02", "mean_aqi": 301.0, "area_km2": 0.25, "city": "Mumbai"}, "geometry": {"type": "Polygon", "coordinates": [[[72.92582255550941, 19.190841309369887], [72.92587909925342, 19.186328144098127], [72.9305969662331, 19.186381436110555], [72.93054055088139, 19.190894614872146], [72.92582255550941, 19.190841309369887]]]}}, {"type": "Feature", "properties": {"hotspot_id": "HS_MUMBAI_052", "date": "2025-01-02", "mean_aqi": 303.0, "area_km2": 0.25, "city": "Mumbai"}, "geometry": {"type": "Polygon", "coordinates": [[[72.93525856188404, 19.190947799179188], [72.93531484884147, 19.186434606958432], [72.94003274704302, 19.18648765664002], [72.9399765884818, 19.191000862289286], [72.93525856188404, 19.190947799179188]]]}}, {"type": "Feature", "properties": {"hotspot_id": "HS_MUMBAI_053", "date": "2025-01-02", "mean_aqi": 302.0, "area_km2": 0.5, "city": "Mumbai"}, "geometry": {"type": "Polygon", "coordinates": [[[72.98243952377499, 19.1914729761349], [72.98249452668321, 19.18695965100899], [72.99193064624079, 19.187063205673567], [72.99187590016543, 19.191576557012514], [72.98243952377499, 19.1914729761349]]]}}, {"type": "Feature", "properties": {"hotspot_id": "HS_MUMBAI_054", "date": "2025-01-02", "mean_aqi": 302.5, "area_km2": 0.5, "city": "Mumbai"}, "geometry": {"type": "Polygon", "coordinates": [[[72.94003274704302, 19.18648765664002], [72.94014501685574, 19.177461238214256], [72.94486267392669, 19.177514139934274], [72.94475066080219, 19.186540585153608], [72.94003274704302, 19.18648765664002]]]}}, {"type": "Feature", "properties": {"hotspot_id": "HS_MUMBAI_055", "date": "2025-01-02", "mean_aqi": 304.0, "area_km2": 0.25, "city": "Mumbai"}, "geometry": {"type": "Polygon", "coordinates": [[[72.97777648974306, 19.186907691900903], [72.97783160558262, 19.182394377557195], [72.98254951414525, 19.182446323513457], [72.98249452668321, 19.18695965100899], [72.97777648974306, 19.186907691900903]]]}}, {"type": "Feature", "properties": {"hotspot_id": "HS_MUMBAI_056", "date": "2025-01-02", "mean_aqi": 302.0, "area_km2": 0.25, "city": "Mumbai"}, "geometry": {"type": "Polygon", "coordinates": [[[72.96839583430676, 19.18229012219348], [72.96845119134328, 19.177776831874205], [72.97316894099012, 19.17782900691823], [72.97311371229128, 19.18234231044997], [72.96839583430676, 19.18229012219348]]]}}, {"type": "Feature", "properties": {"hotspot_id": "HS_MUMBAI_057", "date": "2025-01-02", "mean_aqi": 304.0, "area_km2": 0.25, "city": "Mumbai"}, "geometry": {"type": "Polygon", "coordinates": [[[72.97788670594188, 19.177881060843664], [72.97794179082277, 19.173367741760774], [72.98265944273844, 19.17341966141546], [72.982604486163, 19.177932993648785], [72.97788670594188, 19.177881060843664]]]}}, {"type": "Feature", "properties": {"hotspot_id": "HS_MUMBAI_058", "date": "2025-01-03", "mean_aqi": 302.0, "area_km2": 0.25, "city": "Mumbai"}, "geometry": {"type": "Polygon", "coordinates": [[[72.96351142200955, 19.195777629784406], [72.9635669541529, 19.19126435982546], [72.96828507357466, 19.191316695717884], [72.9682296698752, 19.195829978922035], [72.96351142200955, 19.195777629784406]]]}}]}